{
  "$schema": "https://open.scrud.dev/schema/regions.v1.json",
  "tags": [
    {
      "title": "ä¸­å›½",
      "oneOf": "China",
      "comment": "å°æ¹¾åœ°åŒºå°šæœªå¼€å±•è¿è¥"
    },
    {
      "title": "æ¸¯æ¾³å°",
      "allOf": ["SAR", "China"],
      "comment": "å°æ¹¾åœ°åŒºå°šæœªå¼€å±•è¿è¥"
    },
    {
      "title": "ä¸œäºš",
      "oneOf": "East Asia"
    },
    {
      "title": "ä¸œå—äºš",
      "oneOf": "Southeast Asia"
    }
  ],
  "regions":[
    {
      "id": 86,
      "code": {
        "idd": 86,
        "alpha2": "CN",
        "alpha3": "CHN",
        "numeric": 156,
        "tld": "cn"
      },
      "short_name": "ä¸­å›½",
      "native_name": "ä¸­å›½å¤§é™†",
      "name": "ä¸­å›½å¤§é™†",
      "tags": ["China", "Asia", "Pacific", "East Asia", "country"],
      "flag_emoji": "ğŸ‡¨ğŸ‡³",
      "type": "country",
      "postal": {
        "pattern": "^[1-9][0-9]{5}$"
      },
      "currencies": [
        {
          "code": "CNY",
          "title": "äººæ°‘å¸",
          "symbol": "Â¥",
          "native_name": "å…ƒ",
          "minors": [
            {
              "native_name": "è§’",
              "rate": 10
            },
            {
              "native_name": "åˆ†",
              "rate": 100
            }
          ]
        }
      ],
      "languages": [
        {
          "code": "zh_cn",
          "name": "ç®€ä½“ä¸­æ–‡",
          "aliases": ["æ±‰è¯­", "æ™®é€šè¯", "å›½è¯­"]
        }
      ],
      "telephone": [
        {
          "pattern": "^((\\+|00)?86)?1[3-9][0-9]{9}$",
          "type": "mobile",
          "sms": "all",
          "description": "æ‰‹æœºå·"
        },
        {
          "pattern": "^((\\+|00)?86)?[1-9][0-9]{2,12}$",
          "type": "landline",
          "description": "åº§æœº/å›ºå®šç”µè¯å·"
        }
      ],
      "regions": "cn.json"
    },
    {
      "id": 852,
      "code": {
        "idd": 852,
        "alpha2": "HK",
        "alpha3": "HKG",
        "numeric": 344,
        "tld": "hk"
      },
      "native_name": "ä¸­åœ‹é¦™æ¸¯",
      "name": "ä¸­å›½é¦™æ¸¯",
      "flag": "ğŸ‡­ğŸ‡°",
      "currencies": [
        {
          "code": "HKD",
          "symbol": "$",
          "title": "æ¸¯å¸",
          "native_name": "åœ“",
          "name": "å…ƒ"
        }
      ],
      "telephone": {
        "pattern": "^((\\+|00)?852)?[4-9][0-9]{7}$",
        "type": "mobile",
        "sms": "all",
        "description": "æ‰‹æœºå·ï¼Œæ¯”è¾ƒæ‚ä¹±"
      },
      "regions": [
        {
          "native_name": "é¦™æ¸¯å³¶",
          "short_name": "æ¸¯å³¶",
          "name": "é¦™æ¸¯å²›",
          "regions": [
            {
              "native_name": "ä¸­è¥¿å€",
              "name": "ä¸­è¥¿åŒº"
            },
            {
              "native_name": "ç£ä»”å€",
              "short_name": "ç£ä»”",
              "name": "æ¹¾ä»”åŒº"
            },
            {
              "native_name": "æ±å€",
              "name": "ä¸œåŒº"
            },
            {
              "native_name": "å—å€",
              "name": "å—åŒº"
            }
          ]
        },
        {
          "native_name": "ä¹é¾åŠå³¶",
          "short_name": "ä¹é¾",
          "name": "ä¹é¾™",
          "regions": [
            {
              "native_name": "æ²¹å°–æ—ºå€",
              "short_name": "æ²¹å°–æ—º",
              "name": "æ²¹å°–æ—ºåŒº"
            },
            {
              "native_name": "æ·±æ°´åŸ—å€",
              "short_name": "æ·±æ°´åŸ—",
              "name": "æ·±æ°´åŸ—åŒº"
            },
            {
              "native_name": "ä¹é¾åŸå€",
              "short_name": "ä¹é¾åŸ",
              "name": "ä¹é¾™åŸåŒº"
            },
            {
              "native_name": "é»ƒå¤§ä»™å€",
              "short_name": "é»ƒå¤§ä»™",
              "name": "é»„å¤§ä»™åŒº"
            },
            {
              "native_name": "è§€å¡˜å€",
              "short_name": "è§€å¡˜",
              "name": "è§‚å¡˜åŒº"
            }
          ]
        },
        {
          "native_name": "æ–°ç•Œ",
          "name": "æ–°ç•Œ",
          "regions": [
            {
              "native_name": "åŒ—å€",
              "name": "åŒ—åŒº"
            },
            {
              "native_name": "å¤§åŸ”å€",
              "short_name": "å¤§åŸ”",
              "name": "å¤§åŸ”åŒº"
            },
            {
              "native_name": "æ²™ç”°å€",
              "short_name": "æ²™ç”°",
              "name": "æ²™ç”°åŒº"
            },
            {
              "native_name": "è¥¿è²¢å€",
              "short_name": "è¥¿è²¢",
              "name": "è¥¿è´¡åŒº"
            },
            {
              "native_name": "èƒç£å€",
              "short_name": "èƒç£",
              "name": "èƒæ¹¾åŒº"
            },
            {
              "native_name": "å±¯é–€å€",
              "short_name": "å±¯é–€",
              "name": "å±¯é—¨åŒº"
            },
            {
              "native_name": "å…ƒæœ—å€",
              "short_name": "å…ƒæœ—",
              "name": "å…ƒæœ—åŒº"
            },
            {
              "native_name": "è‘µé’å€",
              "short_name": "è‘µé’",
              "name": "è‘µé’åŒº"
            },
            {
              "native_name": "é›¢å³¶å€",
              "short_name": "é›¢å³¶",
              "name": "ç¦»å²›åŒº"
            }
          ]
        }
      ],
      "tags": ["China", "Asia", "Pacific", "East Asia", "SAR", "Southern China", "South China"]
    },
    {
      "id": 853,
      "code": {
        "idd": 853,
        "alpha2": "MO",
        "alpha3": "MAC",
        "numeric": 446,
        "tld": "mo"
      },
      "native_name": "ä¸­åœ‹æ¾³é–€",
      "name": "ä¸­å›½æ¾³é—¨",
      "flag_emoji": "ğŸ‡²ğŸ‡´",
      "currencies": [
        {
          "code": "MOP",
          "title": "æ¾³é—¨å¸",
          "symbol": "$",
          "native_name": "åœ“",
          "name": "å…ƒ"
        }
      ],
      "tags": ["China", "Asia", "Pacific", "East Asia", "SAR", "Southern China", "South China"],
      "telephone": {
        "pattern": "^((\\+|00)?853)?[68][0-9]{7}$",
        "type": "mobile",
        "sms": "all",
        "description": "æ‰‹æœºå·ï¼Œâš ï¸æ­¤è§„åˆ™ä¸å‡†ç¡®ï¼Œè¯·è¿è¥æ ¸å®"
      },
      "regions": [
        {
          "native_name": "èŠ±åœ°ç‘ªå ‚å€",
          "short_name": "èŠ±åœ°ç‘ª",
          "name": "èŠ±åœ°ç›å ‚åŒº"
        },
        {
          "native_name": "èŠ±ç‹å ‚å€",
          "short_name": "èŠ±ç‹",
          "name": "èŠ±ç‹å ‚åŒº"
        },
        {
          "native_name": "å¤§å ‚å€",
          "short_name": "å¤§å ‚",
          "name": "å¤§å ‚åŒº"
        },
        {
          "native_name": "æœ›å¾·å ‚å€",
          "short_name": "æœ›å¾·",
          "name": "æœ›å¾·å ‚åŒº"
        },
        {
          "native_name": "é¢¨é †å ‚å€",
          "short_name": "é¢¨é †",
          "name": "é£é¡ºå ‚åŒº"
        },
        {
          "native_name": "å˜‰æ¨¡å ‚å€",
          "short_name": "å˜‰æ¨¡",
          "name": "å˜‰æ¨¡å ‚åŒº"
        },
        {
          "native_name": "è·¯æ°¹åŸ",
          "name": "è·¯æ°¹åŸ"
        },
        {
          "native_name": "è–æ–¹æ¿Ÿå„å ‚å€",
          "short_name": "è–æ–¹æ¿Ÿå„",
          "name": "åœ£æ–¹æµå„å ‚åŒº"
        }
      ]
    },
    {
      "id": 886,
      "code": {
        "idd": 886,
        "alpha2": "TW",
        "alpha3": "TWN",
        "numeric": 158,
        "tld": "tw"
      },
      "status": "pending",
      "native_name": "ä¸­åœ‹å°ç£",
      "name": "ä¸­å›½å°æ¹¾",
      "currencies": [
        {
          "code": "TWD",
          "title": "æ–°å°å¸",
          "symbol": "NT$",
          "native_name": "åœ“",
          "name": "å…ƒ"
        }
      ],
      "tags": ["China", "Asia", "Pacific", "East Asia", "SAR"]
    },
    {
      "id": 65,
      "code": {
        "idd": 65,
        "alpha2": "SG",
        "alpha3": "SGP",
        "numeric": 702,
        "tld": "sg"
      },
      "native_name": "æ–°åŠ å¡",
      "name": "æ–°åŠ å¡",
      "flag_emoji": "ğŸ‡¸ğŸ‡¬",
      "currencies": [
        {
          "code": "SGD",
          "symbol": "$",
          "title": "æ–°åŠ å¡å¸",
          "native_name": "å…ƒ"
        }
      ],
      "tags": ["Asia", "Pacific", "Southeast Asia", "country"]
    }
  ]
}